SAUDISAT 1C (SO-50)     
1 27607U 02058C   26164.24421271  .00000961  00000+0  13060-3 0  9997
2 27607  64.5508 141.1849 0075342 263.2031  96.0498 14.83038952263873
SAUDISAT 2              
1 28371U 04025F   26164.25105081  .00000256  00000+0  68221-4 0  9998
2 28371  98.5507 164.1312 0023741 310.8898  49.0242 14.56681903165173
SAUDISAT 3              
1 31118U 07012B   26163.83854226  .00000240  00000+0  46996-4 0  9993
2 31118  98.1454 114.2363 0013432 238.8037 121.1853 14.71423335 27105
PISAT                   
1 41784U 16059B   26164.26141311  .00000828  00000+0  14858-3 0  9999
2 41784  97.8179 164.8829 0028072 215.6825 144.2506 14.68977432519168
FLYING LAPTOP           
1 42831U 17042G   26164.31934940  .00003810  00000+0  30084-3 0  9993
2 42831  97.4666 320.0011 0019416 134.2856 225.9965 15.01122379485876
SALSAT                  
1 46495U 20068K   26164.15546278  .00007973  00000+0  27935-3 0  9995
2 46495  97.8846 166.9746 0008357 325.1548  34.9143 15.29744309314749
