OBJECT_NAME,OBJECT_ID,EPOCH,MEAN_MOTION,ECCENTRICITY,INCLINATION,RA_OF_ASC_NODE,ARG_OF_PERICENTER,MEAN_ANOMALY,EPHEMERIS_TYPE,CLASSIFICATION_TYPE,NORAD_CAT_ID,ELEMENT_SET_NO,REV_AT_EPOCH,BSTAR,MEAN_MOTION_DOT,MEAN_MOTION_DDOT
SAUDISAT 1C (SO-50),2002-058C,2026-06-13T05:51:39.978144,14.83038952,.00753423,64.5508,141.1849,263.2031,96.0498,0,U,27607,999,26387,.13059629E-3,.961E-5,0
SAUDISAT 2,2004-025F,2026-06-13T06:01:30.789984,14.56681903,.00237419,98.5507,164.1312,310.8898,49.0242,0,U,28371,999,16517,.6822055E-4,.256E-5,0
SAUDISAT 3,2007-012B,2026-06-12T20:07:30.051264,14.71423335,.00134329,98.1454,114.2363,238.8037,121.1853,0,U,31118,999,2710,.46996338E-4,.24E-5,0
PISAT,2016-059B,2026-06-13T06:16:26.092704,14.68977432,.00280723,97.8179,164.8829,215.6825,144.2506,0,U,41784,999,51916,.14857758E-3,.828E-5,0
FLYING LAPTOP,2017-042G,2026-06-13T07:39:51.788160,15.01122379,.00194162,97.4666,320.0011,134.2856,225.9965,0,U,42831,999,48587,.3008443E-3,.381E-4,0
SALSAT,2020-068K,2026-06-13T03:43:51.984192,15.29744309,.00083576,97.8846,166.9746,325.1548,34.9143,0,U,46495,999,31474,.27935128E-3,.7973E-4,0
